GLOBAL-19               
1 55982U 23041B   26178.35810750  .00013750  00000+0  36277-3 0  9995
2 55982  42.0001 142.5643 0007282  82.6196 277.5471 15.38246667183490
ION SCV-010             
1 56192U 23054Q   26178.25666962  .00004999  00000+0  19515-3 0  9997
2 56192  97.3778  67.6297 0013337 161.4871 198.6855 15.26278573177731
TELEOS-2                
1 56310U 23057C   26177.48719583  .00000682  00000+0 -44617-6 0  9994
2 56310   9.9882 136.4353 0000292 236.2825 123.7361 14.96412318174193
SNIPE 4                 
1 56744U 23072B   26178.52841903  .00019699  00000+0  45250-3 0  9998
2 56744  97.5243  24.8640 0003798 288.5950  71.4884 15.42724446171703
SNIPE 2                 
1 56745U 23072C   26178.54078992  .00025415  00000+0  49806-3 0  9995
2 56745  97.5236  27.9934 0003197 329.6311  30.4753 15.47360871171845
2023-072G               
1 56749U 23072G   26178.51623383  .00030896  00000+0  52982-3 0  9994
2 56749  97.4891  26.7833 0001739 319.8419  40.2704 15.51145161172068
GEISAT PRECURSOR        
1 56934U 23084C   26178.52058762  .00007424  00000+0  22260-3 0  9994
2 56934  97.6229 319.8149 0004219 313.7875  46.3018 15.34786677169113
BLACKJACK ACES-3        
1 56950U 23084U   26178.31807431  .00005922  00000+0  28991-3 0  9992
2 56950  97.6218 313.5864 0001700   9.0070 351.1194 15.18565034168708
BLACKJACK ACES-2        
1 56955U 23084Z   26178.38992297  .00007514  00000+0  36652-3 0  9991
2 56955  97.6214 313.7435 0000686 112.6853 247.4453 15.18599237168726
BLACKJACK ACES-1        
1 56956U 23084AA  26178.37784481  .00007652  00000+0  37343-3 0  9996
2 56956  97.6205 313.5039 0001237 127.0295 233.1052 15.18578327118446
ION SCV-011             
1 56957U 23084AB  26178.47257051  .00005043  00000+0  18243-3 0  9996
2 56957  98.1376   6.7057 0007244  12.6642 347.4777 15.28940351167383
GHOST-3                 
1 56958U 23084AC  26178.37667600  .00018611  00000+0  35485-3 0  9993
2 56958  97.6221 327.4971 0005885 252.0313 108.0296 15.48207593169597
AFR-1                   
1 56964U 23084AJ  26178.50978256  .00004626  00000+0  16878-3 0  9993
2 56964  97.6281 315.4499 0009178 307.0698  52.9702 15.28637231168804
METEOR-M2 3             
1 57166U 23091A   26178.49728896  .00000008  00000+0  22156-4 0  9994
2 57166  98.6078 233.2645 0004847 130.2501 229.9103 14.24047593155988
UMKA 1 (RS40S)          
1 57172U 23091G   26178.48934323  .00006099  00000+0  27801-3 0  9991
2 57172  97.5051 237.1470 0014266  85.9031 274.3834 15.20933191165579
2023-091H               
1 57173U 23091H   26178.52494668  .00011782  00000+0  42198-3 0  9991
2 57173  97.5050 241.8012 0011055  81.8345 278.4148 15.28854630165884
2023-091J               
1 57174U 23091J   26178.49905252  .00004304  00000+0  24014-3 0  9993
2 57174  97.5054 231.4484 0014797 110.8575 249.4242 15.13996652165193
CUBEBEL 2 (EU11S)       
1 57175U 23091K   26178.52222600  .00013727  00000+0  48290-3 0  9998
2 57175  97.5054 241.8322 0011051  83.2200 277.0297 15.29405966165881
SITRO-AIS 5 (KATYS)     
1 57176U 23091L   26178.47181569  .00012149  00000+0  42395-3 0  9998
2 57176  97.5063 242.4698 0012337  71.5018 288.7562 15.29684812165917
ZORKIY-2M 1             
1 57177U 23091M   26178.47510721  .00006447  00000+0  29275-3 0  9991
2 57177  97.5092 237.4078 0014750  83.3268 276.9646 15.21034080165566
CUBESX-HSE 3 (RS42S)    
1 57178U 23091N   26178.49831142  .00012991  00000+0  42900-3 0  9998
2 57178  97.5095 244.2166 0011459  62.4810 297.7594 15.31467434166005
MONITOR-3 (RS58S)       
1 57180U 23091Q   26178.48021135  .00010315  00000+0  37889-3 0  9991
2 57180  97.5086 242.0023 0012680  68.8263 291.4330 15.28042706165864
MONITOR-4 (RS57S)       
1 57182U 23091S   26178.52417831  .00010872  00000+0  39815-3 0  9999
2 57182  97.5080 242.0184 0012680  68.9230 291.3364 15.28128708165877
MONITOR-2 (RS39S)       
1 57184U 23091U   26178.52359028  .00005034  00000+0  24336-3 0  9990
2 57184  97.5072 236.7397 0012669  79.8372 280.4291 15.19002503165525
SVYATOBOR 1 (RS60S)     
1 57187U 23091X   26178.48070243  .00008682  00000+0  33204-3 0  9993
2 57187  97.5092 242.3550 0010438  63.3608 296.8699 15.26783883165883
HORS 1                  
1 57188U 23091Y   26178.53104744  .00009327  00000+0  35532-3 0  9997
2 57188  97.5069 242.1666 0009901  63.3006 296.9245 15.26896342165893
VIZARD-METEO (RS38S)    
1 57189U 23091Z   26178.50471225  .00016698  00000+0  47262-3 0  9998
2 57189  97.5095 248.1980 0007458  45.5240 314.6613 15.36344830166276
SITRO-AIS 6 (CHIRKIN)   
1 57192U 23091AC  26178.47460159  .00009790  00000+0  38118-3 0  9997
2 57192  97.5070 241.5368 0012767  74.6965 285.5683 15.26124341165854
SITRO-AIS 8 (ANOKHIN)   
1 57193U 23091AD  26178.47073903  .00014686  00000+0  47062-3 0  9993
2 57193  97.5059 244.0995 0011273  67.8713 292.3724 15.32405799166020
SITRO-AIS 7 (FARTUSHNIY)
1 57194U 23091AE  26178.47986589  .00009364  00000+0  36823-3 0  9997
2 57194  97.5066 241.3618 0012684  75.6615 284.6031 15.25807912165845
