OBJECT_NAME,OBJECT_ID,EPOCH,MEAN_MOTION,ECCENTRICITY,INCLINATION,RA_OF_ASC_NODE,ARG_OF_PERICENTER,MEAN_ANOMALY,EPHEMERIS_TYPE,CLASSIFICATION_TYPE,NORAD_CAT_ID,ELEMENT_SET_NO,REV_AT_EPOCH,BSTAR,MEAN_MOTION_DOT,MEAN_MOTION_DDOT
GLOBAL-19,2023-041B,2026-06-27T08:35:40.488000,15.38246667,.0007282,42.0001,142.5643,82.6196,277.5471,0,U,55982,999,18349,.36277E-3,.1375E-3,0
ION SCV-010,2023-054Q,2026-06-27T06:09:36.255168,15.26278573,.0013337,97.3778,67.6297,161.4871,198.6855,0,U,56192,999,17773,.19515E-3,.4999E-4,0
TELEOS-2,2023-057C,2026-06-26T11:41:33.719712,14.96412318,.00002923,9.9882,136.4353,236.2825,123.7361,0,U,56310,999,17419,-.446166E-6,.682E-5,0
SNIPE 4,2023-072B,2026-06-27T12:40:55.404192,15.42724446,.0003798,97.5243,24.8640,288.5950,71.4884,0,U,56744,999,17170,.4525E-3,.19699E-3,0
SNIPE 2,2023-072C,2026-06-27T12:58:44.249088,15.47360871,.0003197,97.5236,27.9934,329.6311,30.4753,0,U,56745,999,17184,.49806E-3,.25415E-3,0
2023-072G,2023-072G,2026-06-27T12:23:22.602912,15.51145161,.0001739,97.4891,26.7833,319.8419,40.2704,0,U,56749,999,17206,.52982E-3,.30896E-3,0
GEISAT PRECURSOR,2023-084C,2026-06-27T12:29:38.770368,15.34786677,.0004219,97.6229,319.8149,313.7875,46.3018,0,U,56934,999,16911,.2226E-3,.7424E-4,0
BLACKJACK ACES-3,2023-084U,2026-06-27T07:38:01.620384,15.18565034,.00017,97.6218,313.5864,9.0070,351.1194,0,U,56950,999,16870,.28991E-3,.5922E-4,0
BLACKJACK ACES-2,2023-084Z,2026-06-27T09:21:29.344608,15.18599237,.0000686,97.6214,313.7435,112.6853,247.4453,0,U,56955,999,16872,.36652E-3,.7514E-4,0
BLACKJACK ACES-1,2023-084AA,2026-06-27T09:04:05.791584,15.18578327,.0001237,97.6205,313.5039,127.0295,233.1052,0,U,56956,999,11844,.37343E-3,.7652E-4,0
ION SCV-011,2023-084AB,2026-06-27T11:20:30.092064,15.28940351,.0007244,98.1376,6.7057,12.6642,347.4777,0,U,56957,999,16738,.18243E-3,.5043E-4,0
GHOST-3,2023-084AC,2026-06-27T09:02:24.806400,15.48207593,.0005885,97.6221,327.4971,252.0313,108.0296,0,U,56958,999,16959,.35485E-3,.18611E-3,0
AFR-1,2023-084AJ,2026-06-27T12:14:05.213184,15.28637231,.0009178,97.6281,315.4499,307.0698,52.9702,0,U,56964,999,16880,.16878E-3,.4626E-4,0
METEOR-M2 3,2023-091A,2026-06-27T11:56:05.766144,14.24047593,.0004847,98.6078,233.2645,130.2501,229.9103,0,U,57166,999,15598,.22156E-4,.8E-7,0
UMKA 1 (RS40S),2023-091G,2026-06-27T11:44:39.255072,15.20933191,.0014266,97.5051,237.1470,85.9031,274.3834,0,U,57172,999,16557,.27801E-3,.6099E-4,0
2023-091H,2023-091H,2026-06-27T12:35:55.393152,15.28854630,.0011055,97.5050,241.8012,81.8345,278.4148,0,U,57173,999,16588,.42198E-3,.11782E-3,0
2023-091J,2023-091J,2026-06-27T11:58:38.137728,15.13996652,.0014797,97.5054,231.4484,110.8575,249.4242,0,U,57174,999,16519,.24014E-3,.4304E-4,0
CUBEBEL 2 (EU11S),2023-091K,2026-06-27T12:32:00.326400,15.29405966,.0011051,97.5054,241.8322,83.2200,277.0297,0,U,57175,999,16588,.4829E-3,.13727E-3,0
SITRO-AIS 5 (KATYS),2023-091L,2026-06-27T11:19:24.875616,15.29684812,.0012337,97.5063,242.4698,71.5018,288.7562,0,U,57176,999,16591,.42395E-3,.12149E-3,0
ZORKIY-2M 1,2023-091M,2026-06-27T11:24:09.262944,15.21034080,.001475,97.5092,237.4078,83.3268,276.9646,0,U,57177,999,16556,.29275E-3,.6447E-4,0
CUBESX-HSE 3 (RS42S),2023-091N,2026-06-27T11:57:34.106688,15.31467434,.0011459,97.5095,244.2166,62.4810,297.7594,0,U,57178,999,16600,.429E-3,.12991E-3,0
MONITOR-3 (RS58S),2023-091Q,2026-06-27T11:31:30.260640,15.28042706,.001268,97.5086,242.0023,68.8263,291.4330,0,U,57180,999,16586,.37889E-3,.10315E-3,0
MONITOR-4 (RS57S),2023-091S,2026-06-27T12:34:49.005984,15.28128708,.001268,97.5080,242.0184,68.9230,291.3364,0,U,57182,999,16587,.39815E-3,.10872E-3,0
MONITOR-2 (RS39S),2023-091U,2026-06-27T12:33:58.200192,15.19002503,.0012669,97.5072,236.7397,79.8372,280.4291,0,U,57184,999,16552,.24336E-3,.5034E-4,0
SVYATOBOR 1 (RS60S),2023-091X,2026-06-27T11:32:12.689952,15.26783883,.0010438,97.5092,242.3550,63.3608,296.8699,0,U,57187,999,16588,.33204E-3,.8682E-4,0
HORS 1,2023-091Y,2026-06-27T12:44:42.498816,15.26896342,.0009901,97.5069,242.1666,63.3006,296.9245,0,U,57188,999,16589,.35532E-3,.9327E-4,0
VIZARD-METEO (RS38S),2023-091Z,2026-06-27T12:06:47.138400,15.36344830,.0007458,97.5095,248.1980,45.5240,314.6613,0,U,57189,999,16627,.47262E-3,.16698E-3,0
SITRO-AIS 6 (CHIRKIN),2023-091AC,2026-06-27T11:23:25.577376,15.26124341,.0012767,97.5070,241.5368,74.6965,285.5683,0,U,57192,999,16585,.38118E-3,.979E-4,0
SITRO-AIS 8 (ANOKHIN),2023-091AD,2026-06-27T11:17:51.852192,15.32405799,.0011273,97.5059,244.0995,67.8713,292.3724,0,U,57193,999,16602,.47062E-3,.14686E-3,0
SITRO-AIS 7 (FARTUSHNIY),2023-091AE,2026-06-27T11:31:00.412896,15.25807912,.0012684,97.5066,241.3618,75.6615,284.6031,0,U,57194,999,16584,.36823E-3,.9364E-4,0
